ENTRYSAT                
1 44429U 98067QP  20072.37947859  .00007807  00000-0  11681-3 0  9998
2 44429  51.6390 100.6394 0002853 346.1663  13.9250 15.56020396 39390
VCC C                   
1 44430U 98067QQ  20072.34666118  .00010035  00000-0  14462-3 0  9990
2 44430  51.6393 100.4284 0003197 357.6848   2.4128 15.56676949 38213
VCC B                   
1 44431U 98067QR  20071.78288341  .00007956  00000-0  12154-3 0  9990
2 44431  51.6397 104.1609 0003273 347.4431  12.6478 15.55415823 39235
ATL-1                   
1 44830U 19084G   20072.12511619  .00026985  00000-0  22075-3 0  9997
2 44830  96.9906 300.8842 0033414 248.4457 111.3244 15.69746878 15142
SMOG-P                  
1 44832U 19084J   20072.36432795  .00031165  00000-0  25018-3 0  9998
2 44832  96.9911 301.1669 0032765 246.3040 113.4785 15.70202173 15188
DUCHIFAT-3              
1 44854U 19089C   20072.71067037  .00000328  00000-0  33003-4 0  9990
2 44854  36.9698 310.0544 0008977 349.7574  10.3020 14.98991734 13774
